ONEWEB-0275             
1 48993U 21060AC  26195.58832513  .00000013  00000+0  87427-6 0  9997
2 48993  87.9081 223.3331 0002005  96.0450 264.0910 13.16595524243165
ONEWEB-0276             
1 48994U 21060AD  26195.62158742  .00000077  00000+0  16848-3 0  9994
2 48994  87.9081 223.3254 0001887  95.0455 265.0891 13.16594096243185
ONEWEB-0277             
1 48995U 21060AE  26195.55826023 -.00000017  00000+0 -77108-4 0  9994
2 48995  87.9077 223.3449 0002174  99.5972 260.5405 13.16595125243163
ONEWEB-0278             
1 48996U 21060AF  26195.62475500  .00000026  00000+0  34495-4 0  9993
2 48996  87.9081 223.3243 0002214  89.4144 270.7240 13.16594117243301
ONEWEB-0279             
1 48997U 21060AG  26195.55667415 -.00000089  00000+0 -26514-3 0  9997
2 48997  87.9083 223.3357 0002000 100.8133 259.3223 13.16593604243224
ONEWEB-0280             
1 48998U 21060AH  26195.57170679  .00000066  00000+0  13809-3 0  9997
2 48998  87.9082 223.3367 0002404  95.0925 265.0480 13.16596019243162
ONEWEB-0281             
1 48999U 21060AJ  26195.57725310 -.00000007  00000+0 -52001-4 0  9991
2 48999  87.9080 223.3315 0002090  92.2057 267.9313 13.16593755243238
ONEWEB-0282             
1 49000U 21060AK  26195.60733359  .00000214  00000+0  52606-3 0  9999
2 49000  87.9077 223.3332 0002140  96.6698 263.4677 13.16595190243219
ONEWEB-0283             
1 49001U 21060AL  26195.59624797  .00000121  00000+0  28413-3 0  9999
2 49001  87.9075 223.3348 0001996  98.8061 261.3296 13.16593631243224
ONEWEB-0284             
1 49002U 21060AM  26195.58992436  .00000034  00000+0  56144-4 0  9993
2 49002  87.9078 223.3299 0002384  91.7518 268.3886 13.16593858243205
ONEWEB-0285             
1 49075U 21075A   26195.42942936  .00000485  00000+0  13132-2 0  9990
2 49075  87.8969 345.2458 0001790  89.4342 270.6992 13.12441497238781
ONEWEB-0286             
1 49076U 21075B   26195.48773157  .00000416  00000+0  11210-2 0  9993
2 49076  87.8959 345.2483 0001748  88.5112 271.6217 13.12441990238146
ONEWEB-0287             
1 49077U 21075C   26195.50367183 -.00000011  00000+0 -61672-4 0  9997
2 49077  87.9141   0.4308 0001861  78.7118 281.4222 13.17647238237221
ONEWEB-0288             
1 49078U 21075D   26195.46414182  .00000021  00000+0  23340-4 0  9994
2 49078  87.8968 345.2322 0001965  89.3413 270.7940 13.12443158238763
ONEWEB-0289             
1 49079U 21075E   26195.46654782  .00000047  00000+0  88266-4 0  9993
2 49079  87.9151   0.4567 0002283  97.0741 263.0650 13.17650322237797
ONEWEB-0290             
1 49080U 21075F   26195.43954746  .00000038  00000+0  63673-4 0  9990
2 49080  87.9153   0.4346 0002345  97.2251 262.9147 13.17650511237208
ONEWEB-0291             
1 49081U 21075G   26195.50031273 -.00000011  00000+0 -61113-4 0  9990
2 49081  87.9144   0.4286 0002113  85.1322 275.0051 13.17646622237207
ONEWEB-0293             
1 49082U 21075H   26195.44966795  .00000053  00000+0  10265-3 0  9995
2 49082  87.9144   0.4410 0002025  92.9049 267.2314 13.17650436237226
ONEWEB-0294             
1 49083U 21075J   26195.39468662  .00000298  00000+0  79328-3 0  9996
2 49083  87.8969 345.2499 0002185  97.4597 262.6780 13.12444125238142
ONEWEB-0295             
1 49084U 21075K   26195.52476723  .00000048  00000+0  91203-4 0  9999
2 49084  87.9144   0.4304 0001998  85.1903 274.9457 13.17650117237196
ONEWEB-0296             
1 49085U 21075L   26195.45058715 -.00000360  00000+0 -10368-2 0  9999
2 49085  87.8968 345.2469 0002051  87.8896 272.2467 13.12443457238154
ONEWEB-0297             
1 49086U 21075M   26195.40485102  .00000531  00000+0  14409-2 0  9997
2 49086  87.8957 345.2630 0001865  92.3975 267.7367 13.12443339238757
ONEWEB-0298             
1 49087U 21075N   26195.45320658 -.00000007  00000+0 -52032-4 0  9993
2 49087  87.9146   0.4428 0001734  89.3567 270.7763 13.17649134237212
ONEWEB-0299             
1 49088U 21075P   26195.45473716  .00000061  00000+0  12384-3 0  9991
2 49088  87.9156   0.4250 0001838  85.6798 274.4544 13.17648503237191
ONEWEB-0300             
1 49089U 21075Q   26195.47346451  .00000337  00000+0  90081-3 0  9995
2 49089  87.8971 345.2320 0001484  94.3945 265.7353 13.12443166238782
ONEWEB-0301             
1 49090U 21075R   26195.45736095 -.00000164  00000+0 -49149-3 0  9991
2 49090  87.8967 345.2330 0001538 100.0681 260.0621 13.12444191238147
ONEWEB-0302             
1 49091U 21075S   26195.44381187 -.00000420  00000+0 -12021-2 0  9992
2 49091  87.8967 345.2478 0002177  95.0805 265.0572 13.12441492238121
ONEWEB-0304             
1 49092U 21075T   26195.50536064 -.00000006  00000+0 -49262-4 0  9995
2 49092  87.9142   0.4352 0001922  87.0069 273.1282 13.17646764237175
ONEWEB-0305             
1 49093U 21075U   26195.49861131 -.00000020  00000+0 -84074-4 0  9996
2 49093  87.9151   0.4230 0001928  80.4183 279.7166 13.17647480237204
ONEWEB-0308             
1 49094U 21075V   26195.43702952 -.00000290  00000+0 -84239-3 0  9997
2 49094  87.8971 345.2416 0001851  96.3051 263.8288 13.12442160238130
