OBJECT_NAME,OBJECT_ID,EPOCH,MEAN_MOTION,ECCENTRICITY,INCLINATION,RA_OF_ASC_NODE,ARG_OF_PERICENTER,MEAN_ANOMALY,EPHEMERIS_TYPE,CLASSIFICATION_TYPE,NORAD_CAT_ID,ELEMENT_SET_NO,REV_AT_EPOCH,BSTAR,MEAN_MOTION_DOT,MEAN_MOTION_DDOT
ONEWEB-0275,2021-060AC,2026-07-14T14:07:11.291232,13.16595524,.00020054,87.9081,223.3331,96.0450,264.0910,0,U,48993,999,24316,.874272E-6,.13E-6,0
ONEWEB-0276,2021-060AD,2026-07-14T14:55:05.153088,13.16594096,.00018876,87.9081,223.3254,95.0455,265.0891,0,U,48994,999,24318,.16847597E-3,.77E-6,0
ONEWEB-0277,2021-060AE,2026-07-14T13:23:53.683872,13.16595125,.00021748,87.9077,223.3449,99.5972,260.5405,0,U,48995,999,24316,-.77108395E-4,-.17E-6,0
ONEWEB-0278,2021-060AF,2026-07-14T14:59:38.832000,13.16594117,.00022144,87.9081,223.3243,89.4144,270.7240,0,U,48996,999,24330,.3449517E-4,.26E-6,0
ONEWEB-0279,2021-060AG,2026-07-14T13:21:36.646560,13.16593604,.00020003,87.9083,223.3357,100.8133,259.3223,0,U,48997,999,24322,-.26514497E-3,-.89E-6,0
ONEWEB-0280,2021-060AH,2026-07-14T13:43:15.466656,13.16596019,.00024044,87.9082,223.3367,95.0925,265.0480,0,U,48998,999,24316,.13809413E-3,.66E-6,0
ONEWEB-0281,2021-060AJ,2026-07-14T13:51:14.667840,13.16593755,.00020906,87.9080,223.3315,92.2057,267.9313,0,U,48999,999,24323,-.52000961E-4,-.7E-7,0
ONEWEB-0282,2021-060AK,2026-07-14T14:34:33.622176,13.16595190,.00021407,87.9077,223.3332,96.6698,263.4677,0,U,49000,999,24321,.52606325E-3,.214E-5,0
ONEWEB-0283,2021-060AL,2026-07-14T14:18:35.824608,13.16593631,.00019966,87.9075,223.3348,98.8061,261.3296,0,U,49001,999,24322,.28413066E-3,.121E-5,0
ONEWEB-0284,2021-060AM,2026-07-14T14:09:29.464704,13.16593858,.00023846,87.9078,223.3299,91.7518,268.3886,0,U,49002,999,24320,.56143524E-4,.34E-6,0
ONEWEB-0285,2021-075A,2026-07-14T10:18:22.696704,13.12441497,.00017909,87.8969,345.2458,89.4342,270.6992,0,U,49075,999,23878,.13132036E-2,.485E-5,0
ONEWEB-0286,2021-075B,2026-07-14T11:42:20.007648,13.12441990,.00017482,87.8959,345.2483,88.5112,271.6217,0,U,49076,999,23814,.11210243E-2,.416E-5,0
ONEWEB-0287,2021-075C,2026-07-14T12:05:17.246112,13.17647238,.0001861,87.9141,0.4308,78.7118,281.4222,0,U,49077,999,23722,-.61672213E-4,-.11E-6,0
ONEWEB-0288,2021-075D,2026-07-14T11:08:21.853248,13.12443158,.0001965,87.8968,345.2322,89.3413,270.7940,0,U,49078,999,23876,.23339994E-4,.21E-6,0
ONEWEB-0289,2021-075E,2026-07-14T11:11:49.731648,13.17650322,.00022834,87.9151,0.4567,97.0741,263.0650,0,U,49079,999,23779,.882657E-4,.47E-6,0
ONEWEB-0290,2021-075F,2026-07-14T10:32:56.900544,13.17650511,.00023453,87.9153,0.4346,97.2251,262.9147,0,U,49080,999,23720,.63672596E-4,.38E-6,0
ONEWEB-0291,2021-075G,2026-07-14T12:00:27.019872,13.17646622,.0002113,87.9144,0.4286,85.1322,275.0051,0,U,49081,999,23720,-.61113388E-4,-.11E-6,0
ONEWEB-0293,2021-075H,2026-07-14T10:47:31.310880,13.17650436,.00020254,87.9144,0.4410,92.9049,267.2314,0,U,49082,999,23722,.10264793E-3,.53E-6,0
ONEWEB-0294,2021-075J,2026-07-14T09:28:20.923968,13.12444125,.00021857,87.8969,345.2499,97.4597,262.6780,0,U,49083,999,23814,.79328234E-3,.298E-5,0
ONEWEB-0295,2021-075K,2026-07-14T12:35:39.888672,13.17650117,.00019987,87.9144,0.4304,85.1903,274.9457,0,U,49084,999,23719,.91203263E-4,.48E-6,0
ONEWEB-0296,2021-075L,2026-07-14T10:48:50.729760,13.12443457,.0002051,87.8968,345.2469,87.8896,272.2467,0,U,49085,999,23815,-.1036798E-2,-.36E-5,0
ONEWEB-0297,2021-075M,2026-07-14T09:42:59.128128,13.12443339,.00018651,87.8957,345.2630,92.3975,267.7367,0,U,49086,999,23875,.1440925E-2,.531E-5,0
ONEWEB-0298,2021-075N,2026-07-14T10:52:37.048512,13.17649134,.00017348,87.9146,0.4428,89.3567,270.7763,0,U,49087,999,23721,-.52032413E-4,-.7E-7,0
ONEWEB-0299,2021-075P,2026-07-14T10:54:49.290624,13.17648503,.00018387,87.9156,0.4250,85.6798,274.4544,0,U,49088,999,23719,.12383716E-3,.61E-6,0
ONEWEB-0300,2021-075Q,2026-07-14T11:21:47.333664,13.12443166,.00014848,87.8971,345.2320,94.3945,265.7353,0,U,49089,999,23878,.90080575E-3,.337E-5,0
ONEWEB-0301,2021-075R,2026-07-14T10:58:35.986080,13.12444191,.00015385,87.8967,345.2330,100.0681,260.0621,0,U,49090,999,23814,-.49148575E-3,-.164E-5,0
ONEWEB-0302,2021-075S,2026-07-14T10:39:05.345568,13.12441492,.00021779,87.8967,345.2478,95.0805,265.0572,0,U,49091,999,23812,-.12021174E-2,-.42E-5,0
ONEWEB-0304,2021-075T,2026-07-14T12:07:43.159296,13.17646764,.00019229,87.9142,0.4352,87.0069,273.1282,0,U,49092,999,23717,-.49262186E-4,-.6E-7,0
ONEWEB-0305,2021-075U,2026-07-14T11:58:00.017184,13.17647480,.00019287,87.9151,0.4230,80.4183,279.7166,0,U,49093,999,23720,-.84073587E-4,-.2E-6,0
ONEWEB-0308,2021-075V,2026-07-14T10:29:19.350528,13.12442160,.00018519,87.8971,345.2416,96.3051,263.8288,0,U,49094,999,23813,-.84238992E-3,-.29E-5,0
